OBJECT_NAME,OBJECT_ID,EPOCH,MEAN_MOTION,ECCENTRICITY,INCLINATION,RA_OF_ASC_NODE,ARG_OF_PERICENTER,MEAN_ANOMALY,EPHEMERIS_TYPE,CLASSIFICATION_TYPE,NORAD_CAT_ID,ELEMENT_SET_NO,REV_AT_EPOCH,BSTAR,MEAN_MOTION_DOT,MEAN_MOTION_DDOT
PERSEUS-M1,2014-033AF,2026-05-16T14:10:42.040704,14.95518502,.0012784,97.9633,80.2103,48.1314,312.0994,0,U,40039,999,64591,.14092E-3,.1503E-4,0
POLYITAN-1,2014-033AJ,2026-05-16T18:42:32.399424,15.32106761,.0005539,98.0960,160.0968,248.8269,111.2379,0,U,40042,999,64878,.50182E-3,.15489E-3,0
TIGRISAT,2014-033AK,2026-05-16T20:27:51.076800,14.85017607,.0049613,97.7796,287.5928,175.8470,184.3166,0,U,40043,999,64097,.1608E-3,.1347E-4,0
AEROCUBE 6A,2014-033AM,2026-05-16T16:39:18.639072,14.97740215,.0040234,97.7220,303.9919,119.7599,240.7635,0,U,40045,999,64190,.40415E-3,.4759E-4,0
AEROCUBE 6B,2014-033AN,2026-05-16T17:26:25.330848,14.99159381,.0038309,97.7170,303.7499,113.0826,247.4442,0,U,40046,999,64204,.4018E-3,.4903E-4,0
CANX-4,2014-034C,2026-05-16T17:45:53.546112,14.81202045,.0014044,98.3163,10.8937,110.0844,250.1880,0,U,40055,999,63987,.82402E-4,.585E-5,0
CANX-5,2014-034D,2026-05-16T20:58:42.657312,14.81219152,.0014046,98.3165,11.0742,109.8709,250.4017,0,U,40056,999,63070,.80821E-4,.573E-5,0
UKUBE-1,2014-037F,2026-05-16T19:49:31.883808,15.13010183,.0000303,98.4239,136.8181,110.0067,250.1193,0,U,40074,999,64381,.34123E-3,.5949E-4,0
BRITE-PL2 (HEWELIUSZ),2014-049B,2026-05-16T18:31:25.394016,14.94464804,.0013456,97.9062,248.5388,208.8593,151.1884,0,U,40119,999,63675,.10814E-3,.1108E-4,0
AEROCUBE 5C,2015-058B,2026-05-16T15:41:47.776416,14.91263748,.0129875,64.7685,0.6754,75.6672,285.8819,0,U,40965,999,36095,.2046E-3,.222E-4,0
AEROCUBE 7,2015-058C,2026-05-16T14:32:38.412096,14.95467313,.0119653,64.7628,343.7167,74.3672,287.0608,0,U,40966,999,36123,.27028E-3,.3281E-4,0
FOX-1A (AO-85),2015-058D,2026-05-16T16:35:28.936032,14.90772442,.0129119,64.7768,16.8492,68.9461,292.5402,0,U,40967,999,10887,.21481E-3,.2304E-4,0
SINOD-D 1,2015-058E,2026-05-16T14:06:18.848160,14.95645120,.0117617,64.7762,357.8510,65.7654,295.5697,0,U,40968,999,11193,.26527E-3,.3216E-4,0
SNAP-3 ALICE,2015-058G,2026-05-16T19:42:36.616032,15.53807330,.003317,64.7529,211.7806,28.2061,332.0869,0,U,40970,999,11200,.886E-3,.58808E-3,0
LMRST-SAT,2015-058H,2026-05-16T15:19:40.215360,14.90397863,.0130897,64.7774,13.2916,70.9923,290.5317,0,U,40971,999,10885,.21727E-3,.2319E-4,0
SNAP-3 EDDIE,2015-058J,2026-05-16T13:52:18.817248,15.54937011,.0033503,64.7446,203.5651,32.1008,328.2166,0,U,40972,999,11410,.10062E-2,.69803E-3,0
PROPCUBE 3,2015-058K,2026-05-16T14:49:07.158144,14.94030179,.0123036,64.7692,351.1555,72.4933,288.9582,0,U,40973,999,11008,.23953E-3,.2794E-4,0
BISONSAT,2015-058L,2026-05-16T19:51:38.369088,15.15522919,.00787,64.7599,274.9735,60.6207,300.2746,0,U,40974,999,11086,.46125E-3,.9298E-4,0
SNAP-3 JIMI,2015-058M,2026-05-16T11:58:27.304032,15.01957836,.0105053,64.7652,320.0062,68.5179,292.7101,0,U,40975,999,10946,.3288E-3,.4677E-4,0
PROPCUBE 1 (FLORA),2015-058N,2026-05-16T16:46:24.439008,14.89030381,.0129695,64.7749,32.8124,73.2710,288.2587,0,U,40976,999,11157,.18815E-3,.1902E-4,0
SINOD-D 3,2015-058P,2026-05-16T15:26:56.944032,14.93759866,.0118163,64.7738,14.3013,70.7372,290.6479,0,U,40977,999,11004,.26575E-3,.3061E-4,0
HORYU-4,2016-012D,2026-05-16T20:24:55.340064,15.79065819,.000497,30.9885,305.8839,58.9439,301.1705,0,U,41340,999,56583,.87779E-3,.166597E-2,0
RAVAN,2016-067B,2026-05-16T14:26:41.343360,15.51633919,.000721,97.9939,22.6019,110.4767,249.7258,0,U,41849,999,52279,.70185E-3,.41771E-3,0
CELTEE 1,2016-067C,2026-05-16T14:21:19.823040,15.19349073,.0001598,98.0712,1.0129,56.1474,303.9911,0,U,41850,999,52108,.18302E-3,.379E-4,0
OPTICUBE 04,2016-067D,2026-05-16T12:39:49.111200,15.09515933,.001467,98.0730,347.1576,220.8677,139.1451,0,U,41851,999,52039,.10534E-3,.1621E-4,0
AEROCUBE 8D,2016-067E,2026-05-16T13:51:08.086752,15.23925564,.0002156,98.0722,4.3497,225.4719,134.6340,0,U,41852,999,52125,.2529E-3,.6031E-4,0
AEROCUBE 8C,2016-067F,2026-05-16T20:52:31.878624,15.24166545,.0005847,98.0592,1.9329,154.6079,205.5445,0,U,41853,999,52129,.23657E-3,.5679E-4,0
CORVUS BC2,2017-042X,2026-05-16T16:54:44.015904,15.06081067,.0012137,97.4038,299.2898,212.9932,147.0540,0,U,42846,999,48232,.14775E-3,.2102E-4,0
CORVUS BC1,2017-042Y,2026-05-16T16:52:07.330368,15.06251931,.001168,97.4068,300.0815,187.7979,172.3069,0,U,42847,999,48235,.1382E-3,.1971E-4,0
MAKERSAT 0,2017-073D,2026-05-16T14:53:38.415264,15.30697756,.0111103,97.4674,18.9198,26.3633,334.3202,0,U,43016,999,46163,.62457E-3,.22402E-3,0
SIRION PATHFINDER-2,2018-099B,2026-05-16T19:06:25.193088,15.14240910,.0010037,97.4275,186.6029,56.3949,303.8240,0,U,43759,999,40787,.19762E-3,.3551E-4,0
